[{"OBJECT_NAME":"OBJECT C","OBJECT_ID":"2023-104C","EPOCH":"2026-03-09T22:39:44.230752","MEAN_MOTION":15.26846312,"ECCENTRICITY":0.00113074,"INCLINATION":97.273,"RA_OF_ASC_NODE":135.3333,"ARG_OF_PERICENTER":3.876,"MEAN_ANOMALY":356.2565,"EPHEMERIS_TYPE":0,"CLASSIFICATION_TYPE":"U","NORAD_CAT_ID":57426,"ELEMENT_SET_NO":999,"REV_AT_EPOCH":14663,"BSTAR":0.00062618506,"MEAN_MOTION_DOT":0.00016495,"MEAN_MOTION_DDOT":0},{"OBJECT_NAME":"STARLINK-31222","OBJECT_ID":"2024-017C","EPOCH":"2026-03-09T15:23:49.562304","MEAN_MOTION":15.30187135,"ECCENTRICITY":0.0001163,"INCLINATION":53.1609,"RA_OF_ASC_NODE":204.2006,"ARG_OF_PERICENTER":103.006,"MEAN_ANOMALY":257.107,"EPHEMERIS_TYPE":0,"CLASSIFICATION_TYPE":"U","NORAD_CAT_ID":58828,"ELEMENT_SET_NO":999,"REV_AT_EPOCH":12005,"BSTAR":9.1125e-6,"MEAN_MOTION_DOT":-8.9e-7,"MEAN_MOTION_DDOT":0}]
